EUTELSAT QUANTUM        
1 49056U 21069B   25220.90392049  .00000128  00000+0  00000+0 0  9998
2 49056   0.0573 277.2946 0002148 231.9881 181.4690  1.00270206 14793
EUTELSAT KONNECT VHTS   
1 53765U 22110A   25221.18540868  .00000018  00000+0  00000+0 0  9991
2 53765   0.0562 100.2967 0002818  29.8887 257.1891  1.00267751 10651
EUTELSAT HOTBIRD 13F    
1 54048U 22134A   25220.90201613  .00000089  00000+0  00000+0 0  9991
2 54048   0.0613 281.3103 0001855  83.0235 291.0273  1.00269637 10246
EUTELSAT HOTBIRD 13G    
1 54225U 22146A   25220.90201613  .00000089  00000+0  00000+0 0  9991
2 54225   0.0561 249.0485 0002156 288.9947 117.3310  1.00271347  4336
EUTELSAT 10B            
1 54259U 22157A   25221.18688203  .00000070  00000+0  00000+0 0  9995
2 54259   0.0504  97.1789 0001675  18.9568 279.0756  1.00267837  9923
EUTELSAT 36D            
1 59346U 24059A   25220.47815811  .00000158  00000+0  00000+0 0  9995
2 59346   0.0185  93.4478 0000388  45.2056  26.5589  1.00271459  5019
